{
    "links": {
        "self": "http://www.neowsapp.com/rest/v1/neo/3371361?api_key=iIulBulltgU6a56xZRHN4H3l9WmuAYTsLGpBGhQ2"
    },
    "id": "3371361",
    "neo_reference_id": "3371361",
    "name": "(2007 EE126)",
    "designation": "2007 EE126",
    "nasa_jpl_url": "http://ssd.jpl.nasa.gov/sbdb.cgi?sstr=3371361",
    "absolute_magnitude_h": 25.6,
    "estimated_diameter": {
        "kilometers": {
            "estimated_diameter_min": 0.0201629919,
            "estimated_diameter_max": 0.0450858206
        },
        "meters": {
            "estimated_diameter_min": 20.1629919443,
            "estimated_diameter_max": 45.0858206172
        },
        "miles": {
            "estimated_diameter_min": 0.0125286985,
            "estimated_diameter_max": 0.0280150214
        },
        "feet": {
            "estimated_diameter_min": 66.1515504905,
            "estimated_diameter_max": 147.9193637137
        }
    },
    "is_potentially_hazardous_asteroid": false,
    "close_approach_data": [
        {
            "close_approach_date": "2007-01-04",
            "close_approach_date_full": "2007-Jan-04 22:01",
            "epoch_date_close_approach": 1167948060000,
            "relative_velocity": {
                "kilometers_per_second": "33.7770792938",
                "kilometers_per_hour": "121597.4854577052",
                "miles_per_hour": "75555.9486723169"
            },
            "miss_distance": {
                "astronomical": "0.0873705999",
                "lunar": "33.9871633611",
                "kilometers": "13070455.645662213",
                "miles": "8121604.5344080194"
            },
            "orbiting_body": "Venus"
        },
        {
            "close_approach_date": "2007-03-10",
            "close_approach_date_full": "2007-Mar-10 21:22",
            "epoch_date_close_approach": 1173561720000,
            "relative_velocity": {
                "kilometers_per_second": "30.609716624",
                "kilometers_per_hour": "110194.9798462391",
                "miles_per_hour": "68470.8751161256"
            },
            "miss_distance": {
                "astronomical": "0.0128895554",
                "lunar": "5.0140370506",
                "kilometers": "1928250.033086998",
                "miles": "1198159.0111886524"
            },
            "orbiting_body": "Earth"
        }
    ],
    "orbital_data": {
        "orbit_id": "6",
        "orbit_determination_date": "2017-04-06 09:06:43",
        "first_observation_date": "2007-03-15",
        "last_observation_date": "2007-03-16",
        "data_arc_in_days": 1,
        "observations_used": 12,
        "orbit_uncertainty": "9",
        "minimum_orbit_intersection": ".00152674",
        "jupiter_tisserand_invariant": "2.147",
        "epoch_osculation": "2454175.5",
        "eccentricity": ".9032197819058664",
        "semi_major_axis": "3.616018992727207",
        "inclination": "8.540147049059916",
        "ascending_node_longitude": "169.8669877837415",
        "orbital_period": "2511.565340649217",
        "perihelion_distance": ".3499591067486684",
        "perihelion_argument": "249.202263603495",
        "aphelion_distance": "6.882078878705745",
        "perihelion_time": "2454130.232234085834",
        "mean_anomaly": "6.488541414927825",
        "mean_motion": ".1433369039512797",
        "equinox": "J2000",
        "orbit_class": {
            "orbit_class_type": "APO",
            "orbit_class_description": "Near-Earth asteroid orbits which cross the Earth’s orbit similar to that of 1862 Apollo",
            "orbit_class_range": "a (semi-major axis) > 1.0 AU; q (perihelion) < 1.017 AU"
        }
    },
    "is_sentry_object": false
}